[{"OBJECT_NAME":"SAUDISAT 1C (SO-50)","OBJECT_ID":"2002-058C","EPOCH":"2026-04-04T04:16:14.559456","MEAN_MOTION":14.8288596,"ECCENTRICITY":0.0075469,"INCLINATION":64.5554,"RA_OF_ASC_NODE":357.9396,"ARG_OF_PERICENTER":275.9713,"MEAN_ANOMALY":83.2796,"EPHEMERIS_TYPE":0,"CLASSIFICATION_TYPE":"U","NORAD_CAT_ID":27607,"ELEMENT_SET_NO":999,"REV_AT_EPOCH":25348,"BSTAR":0.00030473227,"MEAN_MOTION_DOT":2.448e-5,"MEAN_MOTION_DDOT":0},{"OBJECT_NAME":"SAUDISAT 2","OBJECT_ID":"2004-025F","EPOCH":"2026-04-03T21:53:22.987968","MEAN_MOTION":14.56638145,"ECCENTRICITY":0.00250691,"INCLINATION":98.551,"RA_OF_ASC_NODE":91.9796,"ARG_OF_PERICENTER":162.2751,"MEAN_ANOMALY":197.9327,"EPHEMERIS_TYPE":0,"CLASSIFICATION_TYPE":"U","NORAD_CAT_ID":28371,"ELEMENT_SET_NO":999,"REV_AT_EPOCH":15493,"BSTAR":0.00013270284,"MEAN_MOTION_DOT":5.45e-6,"MEAN_MOTION_DDOT":0},{"OBJECT_NAME":"SAUDISAT 3","OBJECT_ID":"2007-012B","EPOCH":"2026-04-04T06:30:36.044064","MEAN_MOTION":14.71378505,"ECCENTRICITY":0.00159612,"INCLINATION":98.139,"RA_OF_ASC_NODE":44.6555,"ARG_OF_PERICENTER":101.5584,"MEAN_ANOMALY":258.7415,"EPHEMERIS_TYPE":0,"CLASSIFICATION_TYPE":"U","NORAD_CAT_ID":31118,"ELEMENT_SET_NO":999,"REV_AT_EPOCH":1687,"BSTAR":0.00010614062,"MEAN_MOTION_DOT":6.07e-6,"MEAN_MOTION_DDOT":0},{"OBJECT_NAME":"PISAT","OBJECT_ID":"2016-059B","EPOCH":"2026-04-03T23:06:35.723808","MEAN_MOTION":14.68843739,"ECCENTRICITY":0.00305795,"INCLINATION":97.8192,"RA_OF_ASC_NODE":97.6114,"ARG_OF_PERICENTER":83.0677,"MEAN_ANOMALY":277.4006,"EPHEMERIS_TYPE":0,"CLASSIFICATION_TYPE":"U","NORAD_CAT_ID":41784,"ELEMENT_SET_NO":999,"REV_AT_EPOCH":50884,"BSTAR":0.00033902994,"MEAN_MOTION_DOT":1.947e-5,"MEAN_MOTION_DDOT":0},{"OBJECT_NAME":"FLYING LAPTOP","OBJECT_ID":"2017-042G","EPOCH":"2026-04-04T07:36:38.361888","MEAN_MOTION":15.00697073,"ECCENTRICITY":0.00197822,"INCLINATION":97.436,"RA_OF_ASC_NODE":252.8659,"ARG_OF_PERICENTER":15.9149,"MEAN_ANOMALY":344.2693,"EPHEMERIS_TYPE":0,"CLASSIFICATION_TYPE":"U","NORAD_CAT_ID":42831,"ELEMENT_SET_NO":999,"REV_AT_EPOCH":47537,"BSTAR":0.00028863265,"MEAN_MOTION_DOT":3.613e-5,"MEAN_MOTION_DDOT":0},{"OBJECT_NAME":"SALSAT","OBJECT_ID":"2020-068K","EPOCH":"2026-04-03T22:39:05.415552","MEAN_MOTION":15.28700775,"ECCENTRICITY":0.00094367,"INCLINATION":97.8863,"RA_OF_ASC_NODE":92.5537,"ARG_OF_PERICENTER":192.637,"MEAN_ANOMALY":167.4633,"EPHEMERIS_TYPE":0,"CLASSIFICATION_TYPE":"U","NORAD_CAT_ID":46495,"ELEMENT_SET_NO":999,"REV_AT_EPOCH":30401,"BSTAR":0.00056346593,"MEAN_MOTION_DOT":0.00015678,"MEAN_MOTION_DDOT":0}]
