SAUDISAT 1C (SO-50)     
1 27607U 02058C   26094.17794629  .00002448  00000+0  30473-3 0  9990
2 27607  64.5554 357.9396 0075469 275.9713  83.2796 14.82885960253488
SAUDISAT 2              
1 28371U 04025F   26093.91207162  .00000545  00000+0  13270-3 0  9999
2 28371  98.5510  91.9796 0025069 162.2751 197.9327 14.56638145154931
SAUDISAT 3              
1 31118U 07012B   26094.27125051  .00000607  00000+0  10614-3 0  9995
2 31118  98.1390  44.6555 0015961 101.5584 258.7415 14.71378505 16876
PISAT                   
1 41784U 16059B   26093.96291347  .00001947  00000+0  33903-3 0  9997
2 41784  97.8192  97.6114 0030579  83.0677 277.4006 14.68843739508849
FLYING LAPTOP           
1 42831U 17042G   26094.31711067  .00003613  00000+0  28863-3 0  9991
2 42831  97.4360 252.8659 0019782  15.9149 344.2693 15.00697073475377
SALSAT                  
1 46495U 20068K   26093.94381268  .00015678  00000+0  56347-3 0  9999
2 46495  97.8863  92.5537 0009436 192.6370 167.4633 15.28700775304012
